[{"OBJECT_NAME":"STARLINK-11515 [DTC]","OBJECT_ID":"2025-006C","EPOCH":"2025-09-26T20:46:54.228288","MEAN_MOTION":15.70875511,"ECCENTRICITY":0.00018392,"INCLINATION":43.0003,"RA_OF_ASC_NODE":47.6899,"ARG_OF_PERICENTER":290.8313,"MEAN_ANOMALY":69.2357,"EPHEMERIS_TYPE":0,"CLASSIFICATION_TYPE":"U","NORAD_CAT_ID":62556,"ELEMENT_SET_NO":999,"REV_AT_EPOCH":4083,"BSTAR":0.0013678986,"MEAN_MOTION_DOT":0.00179175,"MEAN_MOTION_DDOT":0},{"OBJECT_NAME":"STARLINK-11478 [DTC]","OBJECT_ID":"2025-006D","EPOCH":"2025-09-26T09:35:24.004032","MEAN_MOTION":15.70877754,"ECCENTRICITY":0.00024451,"INCLINATION":43.0007,"RA_OF_ASC_NODE":50.2013,"ARG_OF_PERICENTER":282.4817,"MEAN_ANOMALY":77.5778,"EPHEMERIS_TYPE":0,"CLASSIFICATION_TYPE":"U","NORAD_CAT_ID":62557,"ELEMENT_SET_NO":999,"REV_AT_EPOCH":4076,"BSTAR":0.0017760239,"MEAN_MOTION_DOT":0.0023436,"MEAN_MOTION_DDOT":0},{"OBJECT_NAME":"STARLINK-11358 [DTC]","OBJECT_ID":"2025-006E","EPOCH":"2025-09-26T17:05:33.198720","MEAN_MOTION":15.70933706,"ECCENTRICITY":0.00015461,"INCLINATION":42.9997,"RA_OF_ASC_NODE":48.2399,"ARG_OF_PERICENTER":278.0992,"MEAN_ANOMALY":81.97,"EPHEMERIS_TYPE":0,"CLASSIFICATION_TYPE":"U","NORAD_CAT_ID":62558,"ELEMENT_SET_NO":999,"REV_AT_EPOCH":4081,"BSTAR":0.0020844485,"MEAN_MOTION_DOT":0.00277218,"MEAN_MOTION_DDOT":0},{"OBJECT_NAME":"STARLINK-11517 [DTC]","OBJECT_ID":"2025-006F","EPOCH":"2025-09-26T15:49:16.954464","MEAN_MOTION":15.70906393,"ECCENTRICITY":0.00015379,"INCLINATION":43,"RA_OF_ASC_NODE":48.7084,"ARG_OF_PERICENTER":267.5781,"MEAN_ANOMALY":92.4911,"EPHEMERIS_TYPE":0,"CLASSIFICATION_TYPE":"U","NORAD_CAT_ID":62559,"ELEMENT_SET_NO":999,"REV_AT_EPOCH":4080,"BSTAR":0.0013006934,"MEAN_MOTION_DOT":0.00170387,"MEAN_MOTION_DDOT":0},{"OBJECT_NAME":"STARLINK-11519 [DTC]","OBJECT_ID":"2025-006G","EPOCH":"2025-09-26T17:52:43.979808","MEAN_MOTION":15.70929943,"ECCENTRICITY":0.00034468,"INCLINATION":43.0035,"RA_OF_ASC_NODE":48.5065,"ARG_OF_PERICENTER":275.0223,"MEAN_ANOMALY":85.0251,"EPHEMERIS_TYPE":0,"CLASSIFICATION_TYPE":"U","NORAD_CAT_ID":62560,"ELEMENT_SET_NO":999,"REV_AT_EPOCH":4081,"BSTAR":0.0019886249,"MEAN_MOTION_DOT":0.00264014,"MEAN_MOTION_DDOT":0},{"OBJECT_NAME":"STARLINK-11451 [DTC]","OBJECT_ID":"2025-006H","EPOCH":"2025-09-26T19:53:23.289792","MEAN_MOTION":15.70931241,"ECCENTRICITY":0.00018544,"INCLINATION":43.0004,"RA_OF_ASC_NODE":47.3864,"ARG_OF_PERICENTER":293.5301,"MEAN_ANOMALY":66.5372,"EPHEMERIS_TYPE":0,"CLASSIFICATION_TYPE":"U","NORAD_CAT_ID":62561,"ELEMENT_SET_NO":999,"REV_AT_EPOCH":4083,"BSTAR":0.0022117302,"MEAN_MOTION_DOT":0.00294771,"MEAN_MOTION_DDOT":0},{"OBJECT_NAME":"STARLINK-11530 [DTC]","OBJECT_ID":"2025-006J","EPOCH":"2025-09-26T17:51:25.555392","MEAN_MOTION":15.70913314,"ECCENTRICITY":0.00032335,"INCLINATION":43.004,"RA_OF_ASC_NODE":48.4959,"ARG_OF_PERICENTER":281.4929,"MEAN_ANOMALY":78.5576,"EPHEMERIS_TYPE":0,"CLASSIFICATION_TYPE":"U","NORAD_CAT_ID":62562,"ELEMENT_SET_NO":999,"REV_AT_EPOCH":4081,"BSTAR":0.0020533299,"MEAN_MOTION_DOT":0.0027271,"MEAN_MOTION_DDOT":0},{"OBJECT_NAME":"STARLINK-11536 [DTC]","OBJECT_ID":"2025-006K","EPOCH":"2025-09-26T16:57:54.515808","MEAN_MOTION":15.70890613,"ECCENTRICITY":0.00026397,"INCLINATION":43.001,"RA_OF_ASC_NODE":48.1953,"ARG_OF_PERICENTER":283.4084,"MEAN_ANOMALY":76.649,"EPHEMERIS_TYPE":0,"CLASSIFICATION_TYPE":"U","NORAD_CAT_ID":62563,"ELEMENT_SET_NO":999,"REV_AT_EPOCH":4081,"BSTAR":0.0019948756,"MEAN_MOTION_DOT":0.00264402,"MEAN_MOTION_DDOT":0},{"OBJECT_NAME":"STARLINK-11540 [DTC]","OBJECT_ID":"2025-006L","EPOCH":"2025-09-26T15:56:55.606272","MEAN_MOTION":15.70911238,"ECCENTRICITY":0.00012224,"INCLINATION":42.9992,"RA_OF_ASC_NODE":48.7467,"ARG_OF_PERICENTER":249.4676,"MEAN_ANOMALY":110.6061,"EPHEMERIS_TYPE":0,"CLASSIFICATION_TYPE":"U","NORAD_CAT_ID":62564,"ELEMENT_SET_NO":999,"REV_AT_EPOCH":4080,"BSTAR":0.0015039651,"MEAN_MOTION_DOT":0.00197782,"MEAN_MOTION_DDOT":0},{"OBJECT_NAME":"STARLINK-11523 [DTC]","OBJECT_ID":"2025-006M","EPOCH":"2025-09-26T20:39:15.484896","MEAN_MOTION":15.70920506,"ECCENTRICITY":0.00019372,"INCLINATION":42.9997,"RA_OF_ASC_NODE":47.6418,"ARG_OF_PERICENTER":279.285,"MEAN_ANOMALY":80.7798,"EPHEMERIS_TYPE":0,"CLASSIFICATION_TYPE":"U","NORAD_CAT_ID":62565,"ELEMENT_SET_NO":999,"REV_AT_EPOCH":4083,"BSTAR":0.0020818353,"MEAN_MOTION_DOT":0.00276699,"MEAN_MOTION_DDOT":0},{"OBJECT_NAME":"STARLINK-11525 [DTC]","OBJECT_ID":"2025-006N","EPOCH":"2025-09-26T17:59:04.662528","MEAN_MOTION":15.70804484,"ECCENTRICITY":0.00016112,"INCLINATION":43,"RA_OF_ASC_NODE":48.535,"ARG_OF_PERICENTER":283.2555,"MEAN_ANOMALY":76.8133,"EPHEMERIS_TYPE":0,"CLASSIFICATION_TYPE":"U","NORAD_CAT_ID":62566,"ELEMENT_SET_NO":999,"REV_AT_EPOCH":4081,"BSTAR":1.2332255e-5,"MEAN_MOTION_DOT":1.132e-5,"MEAN_MOTION_DDOT":0},{"OBJECT_NAME":"STARLINK-32752","OBJECT_ID":"2025-006P","EPOCH":"2025-09-25T23:51:38.528352","MEAN_MOTION":15.27615701,"ECCENTRICITY":0.00025534,"INCLINATION":42.9992,"RA_OF_ASC_NODE":142.7735,"ARG_OF_PERICENTER":256.1395,"MEAN_ANOMALY":103.9173,"EPHEMERIS_TYPE":0,"CLASSIFICATION_TYPE":"U","NORAD_CAT_ID":62567,"ELEMENT_SET_NO":999,"REV_AT_EPOCH":3967,"BSTAR":0.0015452701,"MEAN_MOTION_DOT":0.00042555,"MEAN_MOTION_DDOT":0},{"OBJECT_NAME":"STARLINK-32760","OBJECT_ID":"2025-006Q","EPOCH":"2025-09-26T01:33:46.851840","MEAN_MOTION":15.28413134,"ECCENTRICITY":0.00026986,"INCLINATION":42.9989,"RA_OF_ASC_NODE":142.4403,"ARG_OF_PERICENTER":272.2081,"MEAN_ANOMALY":87.8462,"EPHEMERIS_TYPE":0,"CLASSIFICATION_TYPE":"U","NORAD_CAT_ID":62568,"ELEMENT_SET_NO":999,"REV_AT_EPOCH":3968,"BSTAR":0.0019875173,"MEAN_MOTION_DOT":0.00056271,"MEAN_MOTION_DDOT":0},{"OBJECT_NAME":"STARLINK-32715","OBJECT_ID":"2025-006R","EPOCH":"2025-09-26T19:01:52.928544","MEAN_MOTION":15.27597764,"ECCENTRICITY":0.00015073,"INCLINATION":42.9986,"RA_OF_ASC_NODE":138.4461,"ARG_OF_PERICENTER":261.1624,"MEAN_ANOMALY":98.9057,"EPHEMERIS_TYPE":0,"CLASSIFICATION_TYPE":"U","NORAD_CAT_ID":62569,"ELEMENT_SET_NO":999,"REV_AT_EPOCH":3979,"BSTAR":0.0021281802,"MEAN_MOTION_DOT":0.00058801,"MEAN_MOTION_DDOT":0},{"OBJECT_NAME":"STARLINK-32764","OBJECT_ID":"2025-006S","EPOCH":"2025-09-26T16:04:40.408896","MEAN_MOTION":15.27580548,"ECCENTRICITY":0.00015942,"INCLINATION":42.9986,"RA_OF_ASC_NODE":139.2418,"ARG_OF_PERICENTER":276.3388,"MEAN_ANOMALY":83.7282,"EPHEMERIS_TYPE":0,"CLASSIFICATION_TYPE":"U","NORAD_CAT_ID":62570,"ELEMENT_SET_NO":999,"REV_AT_EPOCH":3977,"BSTAR":0.0015142841,"MEAN_MOTION_DOT":0.00041644,"MEAN_MOTION_DDOT":0},{"OBJECT_NAME":"STARLINK-32773","OBJECT_ID":"2025-006T","EPOCH":"2025-09-26T16:41:27.991968","MEAN_MOTION":15.27572946,"ECCENTRICITY":0.00018007,"INCLINATION":43.0045,"RA_OF_ASC_NODE":138.579,"ARG_OF_PERICENTER":286.6497,"MEAN_ANOMALY":73.4157,"EPHEMERIS_TYPE":0,"CLASSIFICATION_TYPE":"U","NORAD_CAT_ID":62571,"ELEMENT_SET_NO":999,"REV_AT_EPOCH":3978,"BSTAR":0.0014257725,"MEAN_MOTION_DOT":0.00039173,"MEAN_MOTION_DDOT":0}]
