STARLINK-11515 [DTC]    
1 62556U 25006C   25269.86590542  .00179175  00000+0  13679-2 0  9997
2 62556  43.0003  47.6899 0001839 290.8313  69.2357 15.70875511 40833
STARLINK-11478 [DTC]    
1 62557U 25006D   25269.39958338  .00234360  00000+0  17760-2 0  9990
2 62557  43.0007  50.2013 0002445 282.4817  77.5778 15.70877754 40768
STARLINK-11358 [DTC]    
1 62558U 25006E   25269.71218980  .00277218  00000+0  20844-2 0  9995
2 62558  42.9997  48.2399 0001546 278.0992  81.9700 15.70933706 40815
STARLINK-11517 [DTC]    
1 62559U 25006F   25269.65922401  .00170387  00000+0  13007-2 0  9991
2 62559  43.0000  48.7084 0001537 267.5781  92.4911 15.70906393 40800
STARLINK-11519 [DTC]    
1 62560U 25006G   25269.74495347  .00264014  00000+0  19886-2 0  9999
2 62560  43.0035  48.5065 0003446 275.0223  85.0251 15.70929943 40815
STARLINK-11451 [DTC]    
1 62561U 25006H   25269.82874178  .00294771  00000+0  22117-2 0  9996
2 62561  43.0004  47.3864 0001854 293.5301  66.5372 15.70931241 40833
STARLINK-11530 [DTC]    
1 62562U 25006J   25269.74404578  .00272710  00000+0  20533-2 0  9990
2 62562  43.0040  48.4959 0003233 281.4929  78.5576 15.70913314 40814
STARLINK-11536 [DTC]    
1 62563U 25006K   25269.70688097  .00264402  00000+0  19949-2 0  9995
2 62563  43.0010  48.1953 0002639 283.4084  76.6490 15.70890613 40816
STARLINK-11540 [DTC]    
1 62564U 25006L   25269.66453248  .00197782  00000+0  15040-2 0  9993
2 62564  42.9992  48.7467 0001222 249.4676 110.6061 15.70911238 40805
STARLINK-11523 [DTC]    
1 62565U 25006M   25269.86059589  .00276699  00000+0  20818-2 0  9990
2 62565  42.9997  47.6418 0001937 279.2850  80.7798 15.70920506 40838
STARLINK-11525 [DTC]    
1 62566U 25006N   25269.74935952  .00001132  00000+0  12332-4 0  9997
2 62566  43.0000  48.5350 0001611 283.2555  76.8133 15.70804484 40810
STARLINK-32752          
1 62567U 25006P   25268.99419593  .00042555  00000+0  15453-2 0  9991
2 62567  42.9992 142.7735 0002553 256.1395 103.9173 15.27615701 39672
STARLINK-32760          
1 62568U 25006Q   25269.06512560  .00056271  00000+0  19875-2 0  9991
2 62568  42.9989 142.4403 0002698 272.2081  87.8462 15.28413134 39688
STARLINK-32715          
1 62569U 25006R   25269.79297371  .00058801  00000+0  21282-2 0  9998
2 62569  42.9986 138.4461 0001507 261.1624  98.9057 15.27597764 39799
STARLINK-32764          
1 62570U 25006S   25269.66991214  .00041644  00000+0  15143-2 0  9999
2 62570  42.9986 139.2418 0001594 276.3388  83.7282 15.27580548 39775
STARLINK-32773          
1 62571U 25006T   25269.69546287  .00039173  00000+0  14258-2 0  9999
2 62571  43.0045 138.5790 0001800 286.6497  73.4157 15.27572946 39785
